{
  "links" : {
    "next" : "https://api.nasa.gov/neo/rest/v1/feed?start_date=2007-12-09&end_date=2007-12-09&detailed=true&api_key=t0TVs3DtDT2H8Oy2Zy8m2eVrNsAVKAexjcZXUckd",
    "prev" : "https://api.nasa.gov/neo/rest/v1/feed?start_date=2007-12-07&end_date=2007-12-07&detailed=true&api_key=t0TVs3DtDT2H8Oy2Zy8m2eVrNsAVKAexjcZXUckd",
    "self" : "https://api.nasa.gov/neo/rest/v1/feed?start_date=2007-12-08&end_date=2007-12-08&detailed=true&api_key=t0TVs3DtDT2H8Oy2Zy8m2eVrNsAVKAexjcZXUckd"
  },
  "element_count" : 7,
  "near_earth_objects" : {
    "2007-12-08" : [ {
      "links" : {
        "self" : "https://api.nasa.gov/neo/rest/v1/neo/2471323?api_key=t0TVs3DtDT2H8Oy2Zy8m2eVrNsAVKAexjcZXUckd"
      },
      "neo_reference_id" : "2471323",
      "name" : "471323 (2011 KW15)",
      "nasa_jpl_url" : "http://ssd.jpl.nasa.gov/sbdb.cgi?sstr=2471323",
      "absolute_magnitude_h" : 19.4,
      "estimated_diameter" : {
        "kilometers" : {
          "estimated_diameter_min" : 0.3503926411,
          "estimated_diameter_max" : 0.7835017643
        },
        "meters" : {
          "estimated_diameter_min" : 350.3926411083,
          "estimated_diameter_max" : 783.5017643338
        },
        "miles" : {
          "estimated_diameter_min" : 0.2177238258,
          "estimated_diameter_max" : 0.4868452748
        },
        "feet" : {
          "estimated_diameter_min" : 1149.5821926537,
          "estimated_diameter_max" : 2570.543928497
        }
      },
      "is_potentially_hazardous_asteroid" : true,
      "close_approach_data" : [ {
        "close_approach_date" : "2007-12-08",
        "epoch_date_close_approach" : 1197100800000,
        "relative_velocity" : {
          "kilometers_per_second" : "15.2507167154",
          "kilometers_per_hour" : "54902.580175318",
          "miles_per_hour" : "34114.3282206024"
        },
        "miss_distance" : {
          "astronomical" : "0.3679517614",
          "lunar" : "143.1332244873",
          "kilometers" : "55044800",
          "miles" : "34203252"
        },
        "orbiting_body" : "Earth"
      } ],
      "orbital_data" : {
        "orbit_id" : "22",
        "orbit_determination_date" : "2017-04-06 09:19:11",
        "orbit_uncertainty" : "0",
        "minimum_orbit_intersection" : ".0437754",
        "jupiter_tisserand_invariant" : "5.203",
        "epoch_osculation" : "2458000.5",
        "eccentricity" : ".4938564854124059",
        "semi_major_axis" : "1.169784152291741",
        "inclination" : "23.65651904988886",
        "ascending_node_longitude" : "283.3898259455584",
        "orbital_period" : "462.122407318729",
        "perihelion_distance" : ".5920786621498114",
        "perihelion_argument" : "97.48219523504955",
        "aphelion_distance" : "1.747489642433671",
        "perihelion_time" : "2458105.839266735099",
        "mean_anomaly" : "277.9391965763725",
        "mean_motion" : ".7790143786551028",
        "equinox" : "J2000"
      }
    } ]
  }
}